STARLINK-2592_new
1 18408C 21038BH  21326.11787826  .00008599  00000-0  57629-3 0  3269
2 18408  53.0524 183.1991 0001941  80.6673 133.8200 15.06378147    12
STARLINK-2592_old
1 28408C 21038BH  21325.12257545 -.00007634  00000-0 -51141-3 0  3252
2 28408  53.0522 187.6674 0001966  81.1835 132.7423 15.06410702    19
